ONEWEB-0349             
1 49281U 21090C   24184.15942183  .00000105  00000+0  22653-3 0  9994
2 49281  87.9203  56.7060 0001948  81.6412 278.4942 13.20770862136735
ONEWEB-0353             
1 49282U 21090D   24183.93187559 -.00000001  00000+0 -36109-4 0  9997
2 49282  87.8960  72.0071 0002141  75.5243 284.6124 13.14501174133614
ONEWEB-0356             
1 49283U 21090E   24183.93056085 -.00000219  00000+0 -56941-3 0  9993
2 49283  87.9201  56.7461 0002256 105.6826 254.4557 13.20771762135419
ONEWEB-0358             
1 49284U 21090F   24184.18781544  .00000001  00000+0 -30676-4 0  9993
2 49284  87.9202  56.6815 0001704  90.7194 269.4134 13.20773609137468
ONEWEB-0359             
1 49285U 21090G   24183.88163180 -.00000265  00000+0 -68353-3 0  9995
2 49285  87.9203  56.7608 0001354  78.8734 281.2552 13.20771627136114
ONEWEB-0360             
1 49286U 21090H   24183.94792639  .00000008  00000+0 -11522-4 0  9991
2 49286  87.9202  56.7523 0001754  81.0542 279.0789 13.20770314135430
ONEWEB-0361             
1 49287U 21090J   24183.92899078  .00000047  00000+0  82918-4 0  9994
2 49287  87.9202  56.7504 0001953  84.9244 275.2112 13.20770860135885
ONEWEB-0362             
1 49288U 21090K   24184.22485796 -.00000933  00000+0 -23618-2 0  9993
2 49288  87.9148  87.2595 0001896  66.8456 293.2877 13.19730943133437
